IRIDIUM 8 [+]           
1 24792U 97020A   17181.84144107  .00000094  00000-0  26585-4 0  9992
2 24792  86.3966 312.9746 0002252  94.2774 265.8679 14.34213835 54927
IRIDIUM 7 [+]           
1 24793U 97020B   17181.90478948  .00000060  00000-0  14296-4 0  9992
2 24793  86.3970 313.2329 0002260  93.1758 266.9697 14.34219839 54936
IRIDIUM 6 [+]           
1 24794U 97020C   17181.89847106  .00000117  00000-0  34786-4 0  9996
2 24794  86.3967 313.1653 0002205  94.4897 265.6550 14.34212820 54925
IRIDIUM 5 [+]           
1 24795U 97020D   17181.89218110  .00000121  00000-0  36097-4 0  9996
2 24795  86.3972 313.1795 0002172  96.6739 263.4704 14.34216075 55206
IRIDIUM 4 [-]           
1 24796U 97020E   17181.89661455  .00000120  00000-0  34956-4 0  9992
2 24796  86.3964 312.1020 0002279  92.2729  58.3260 14.35161995 55239
IRIDIUM 914 [-]         
1 24836U 97030A   17181.89401737  .00000070  00000-0  16140-4 0  9992
2 24836  86.3939 328.8264 0003810  81.3650 278.7980 14.38764270188810
IRIDIUM 12 [+]          
1 24837U 97030B   17181.86982076 -.00000036  00000-0 -20048-4 0  9996
2 24837  86.3948 344.3692 0002165  89.0419  72.4295 14.34212870 48621
IRIDIUM 10 [+]          
1 24839U 97030D   17181.55559499  .00000049  00000-0  10596-4 0  9992
2 24839  86.3953 344.4800 0002259  92.1803 313.4733 14.34215565 48873
IRIDIUM 13 [+]          
1 24840U 97030E   17181.81981520 -.00000051  00000-0 -23151-4 0  9993
2 24840  86.4231 344.5122 0002141  98.7915 261.3526 14.38686081 48903
IRIDIUM 16 [-]          
1 24841U 97030F   17181.36415770  .00000102  00000-0  27833-4 0  9999
2 24841  86.4034 344.4929 0001144 169.7842 190.3378 14.36718432 49472
IRIDIUM 911 [-]         
1 24842U 97030G   17181.54362870  .00000116  00000-0  27335-4 0  9994
2 24842  86.4460 345.1938 0016206  52.6068 307.6606 14.44966245 54872
IRIDIUM 15 [+]          
1 24869U 97034A   17181.66241058 -.00000050  00000-0 -22921-4 0  9999
2 24869  86.4174  16.4425 0001880  73.8864 286.2541 14.38615133 45604
IRIDIUM 17 [-]          
1 24870U 97034B   17181.68986588  .00000093  00000-0  25201-4 0  9996
2 24870  86.3956  14.5177 0003016 125.5897 234.5581 14.35762659 46110
IRIDIUM 920 [-]         
1 24871U 97034C   17181.92789893  .00000103  00000-0  26808-4 0  9990
2 24871  86.3969   0.5688 0009771 300.7240  59.2996 14.39476629 48061
IRIDIUM 18 [+]          
1 24872U 97034D   17181.65607963 -.00000056  00000-0 -24768-4 0  9990
2 24872  86.4199  16.4432 0001712  69.6638 290.4744 14.38615638 45825
IRIDIUM 921 [-]         
1 24873U 97034E   17181.81479733  .00000656  00000-0  36802-4 0  9997
2 24873  86.3926  59.5479 0006734 343.8342  16.2681 15.11367510 89872
IRIDIUM 26 [-]          
1 24903U 97043A   17180.65944848 -.00000019  00000-0 -13469-4 0  9995
2 24903  86.3976 249.5616 0002116  91.8005  17.8894 14.35260482 39762
IRIDIUM 25 [+]          
1 24904U 97043B   17181.81561326  .00000129  00000-0  39158-4 0  9994
2 24904  86.3965 249.7167 0002211  92.4711 267.6737 14.34215340 39573
IRIDIUM 46 [+]          
1 24905U 97043C   17181.75849041  .00000126  00000-0  37952-4 0  9998
2 24905  86.3989 249.7205 0001892  84.7449 275.3963 14.34220862 39773
IRIDIUM 23 [+]          
1 24906U 97043D   17181.77912394  .00000118  00000-0  35176-4 0  9990
2 24906  86.3978 249.7833 0002286  89.3084  49.9214 14.34218846 39507
IRIDIUM 22 [+]          
1 24907U 97043E   17181.79655612  .00000128  00000-0  38793-4 0  9999
2 24907  86.3976 250.3953 0002310  92.0185 268.1275 14.34219708 39799
DUMMY MASS 1 [-]        
1 24925U 97048A   17181.72531660  .00000057  00000-0  33611-5 0  9999
2 24925  86.3344  37.1749 0007237  14.1607 345.9819 14.85136763 73598
DUMMY MASS 2 [-]        
1 24926U 97048B   17181.69852760  .00000050  00000-0  25238-5 0  9992
2 24926  86.3344  38.3055 0008327  19.4997 340.6544 14.84904850 73195
IRIDIUM 29 [-]          
1 24944U 97051A   17181.85258732  .00000083  00000-0  22248-4 0  9996
2 24944  86.3972 281.1492 0002450  90.0332 270.1145 14.34606990 36174
IRIDIUM 32 [+]          
1 24945U 97051B   17181.89516097  .00000143  00000-0  44123-4 0  9995
2 24945  86.3967 281.3561 0002339  92.2384 267.9079 14.34217685 36387
IRIDIUM 33 [-]          
1 24946U 97051C   17181.86407157  .00000070  00000-0  18257-4 0  9997
2 24946  86.3888 280.9967 0007595 182.6053 177.5104 14.33557308 35989
IRIDIUM 28 [-]          
1 24948U 97051E   17181.85903602  .00000085  00000-0  22600-4 0  9997
2 24948  86.3977 280.3701 0001990  98.2285 261.9137 14.35555301 36474
IRIDIUM 30 [+]          
1 24949U 97051F   17181.81908940 -.00000016  00000-0 -12639-4 0  9991
2 24949  86.3993 281.5185 0001842 105.3830 254.7569 14.34215063 36144
IRIDIUM 31 [+]          
1 24950U 97051G   17181.81271106  .00000020  00000-0 -94592-7 0  9995
2 24950  86.3967 281.4848 0002344  92.8397 267.3067 14.34216832 36449
IRIDIUM 19 [+]          
1 24965U 97056A   17181.86682058  .00000110  00000-0  32075-4 0  9997
2 24965  86.3965 312.9755 0002283  94.3662 265.7794 14.34215523 34515
IRIDIUM 35 [+]          
1 24966U 97056B   17181.87949538  .00000113  00000-0  33299-4 0  9990
2 24966  86.3964 312.9640 0002261  94.1645 265.9809 14.34215437 34213
IRIDIUM 36 [-]          
1 24967U 97056C   17181.86335813  .00000098  00000-0  27196-4 0  9996
2 24967  86.3978 312.0169 0002375  95.0376 265.1092 14.35608206 34827
IRIDIUM 37 [+]          
1 24968U 97056D   17181.78436290  .00000113  00000-0  33368-4 0  9995
2 24968  86.3967 313.1907 0002350  96.0613 264.0850 14.34214246 34271
IRIDIUM 34 [+]          
1 24969U 97056E   17181.87315678  .00000116  00000-0  34275-4 0  9993
2 24969  86.3966 313.0903 0002296  95.2272 264.9186 14.34216003 34507
IRIDIUM 43 [-]          
1 25039U 97069A   17181.88059932  .00054957 -50257-6  33933-3 0  9992
2 25039  86.4043  12.9328 0308047 352.5992   7.0756 15.33074892 28757
IRIDIUM 41 [+]          
1 25040U 97069B   17181.64535325 -.00000054  00000-0 -26368-4 0  9993
2 25040  86.3949  16.3331 0001938  83.9054 276.2362 14.34215620 27947
IRIDIUM 40 [-]          
1 25041U 97069C   17181.61219914  .00021810 -90870-6  20855-3 0  9990
2 25041  86.3890  10.9193 0278833 228.0157 129.7043 15.30464558 29005
IRIDIUM 39 [B]          
1 25042U 97069D   17181.64736055  .00000112  00000-0  25669-4 0  9994
2 25042  86.3913  13.4694 0016762 268.0535  91.8748 14.46162912 28400
IRIDIUM 38 [-]          
1 25043U 97069E   17181.87797966  .00000099  00000-0  27199-4 0  9992
2 25043  86.3955  13.3987 0001284 126.6188 233.5127 14.36035621 28431
IRIDIUM 42 [-]          
1 25077U 97077A   17181.65132209  .00000088  00000-0  24122-4 0  9998
2 25077  86.3959  16.2762 0001806  98.1483 261.9918 14.34513378 24118
IRIDIUM 44 [-]          
1 25078U 97077B   17181.92225453  .00000100  00000-0  26402-4 0  9991
2 25078  86.3955   5.7041 0001646 143.0464 217.0847 14.38129895 25574
IRIDIUM 45 [+]          
1 25104U 97082A   17181.87612799  .00000159  00000-0  49701-4 0  9995
2 25104  86.3965 281.4886 0001395 106.8794 253.2554 14.34218008 22079
IRIDIUM 24 [-]          
1 25105U 97082B   17181.73363198  .00000093  00000-0  23385-4 0  9994
2 25105  86.3927 229.7317 0009635 306.9544  53.0772 14.39860419 24550
IRIDIUM 47 [+]          
1 25106U 97082C   17181.76484538  .00000119  00000-0  35308-4 0  9997
2 25106  86.3962 249.6084 0002280  89.1198 271.0259 14.34219456 22022
IRIDIUM 49 [+]          
1 25108U 97082E   17181.80426681  .00000114  00000-0  33644-4 0  9995
2 25108  86.3964 249.6950 0002262  90.9897  47.1051 14.34219526 22068
IRIDIUM 52 [+]          
1 25169U 98010A   17181.59753263 -.00000029  00000-0 -17536-4 0  9998
2 25169  86.3952 344.7807 0002173  89.6021 270.5423 14.34213582 13426
IRIDIUM 56 [+]          
1 25170U 98010B   17181.87026878 -.00000157  00000-0 -63256-4 0  9998
2 25170  86.3948 344.7723 0001934  89.7240 270.4178 14.34208035 13645
IRIDIUM 54 [+]          
1 25171U 98010C   17181.55319327 -.00000036  00000-0 -19936-4 0  9990
2 25171  86.3952 344.8203 0002177  89.1353 271.0092 14.34211750 13868
IRIDIUM 50 [+]          
1 25172U 98010D   17181.86389826 -.00000034  00000-0 -19298-4 0  9995
2 25172  86.3952 344.6464 0002243  87.9889 272.1564 14.34212911 13440
IRIDIUM 53 [+]          
1 25173U 98010E   17181.88303732 -.00000039  00000-0 -21116-4 0  9997
2 25173  86.3952 344.6447 0002176  89.7458 270.3987 14.34212028 13469
IRIDIUM 51 [S]          
1 25262U 98018A   17181.83514018  .00000141  00000-0  43201-4 0  9991
2 25262  86.3981 313.3224 0002249  80.4374 279.7076 14.34233169 12877
IRIDIUM 61 [+]          
1 25263U 98018B   17181.86047565  .00000108  00000-0  31564-4 0  9995
2 25263  86.3966 313.1241 0002273  93.9143 266.2312 14.34215709  8596
IRIDIUM 55 [+]          
1 25272U 98019A   17181.86344887  .00000143  00000-0  43876-4 0  9991
2 25272  86.3967 281.2776 0002295  92.8616 267.2843 14.34217749  7812
IRIDIUM 57 [-]          
1 25273U 98019B   17181.82982423  .00000022  00000-0  91379-6 0  9991
2 25273  86.3976 281.6026 0002349  92.6162 267.5302 14.34271268  7807
IRIDIUM 58 [+]          
1 25274U 98019C   17181.84442294  .00000146  00000-0  44993-4 0  9996
2 25274  86.3973 281.7919 0002263  91.4304 268.7151 14.34217471  7819
IRIDIUM 59 [+]          
1 25275U 98019D   17181.85076460  .00000143  00000-0  44035-4 0  9990
2 25275  86.3969 281.6413 0002407  91.8981 268.2490 14.34217426  8102
IRIDIUM 60 [+]          
1 25276U 98019E   17181.85710643  .00000151  00000-0  46839-4 0  9992
2 25276  86.3965 281.2578 0002286  93.5335 266.6122 14.34221588  7819
IRIDIUM 62 [+]          
1 25285U 98021A   17181.67894097  .00000044  00000-0  87500-5 0  9993
2 25285  86.3965 218.2600 0002272  89.0678 271.0778 14.34218923  6961
IRIDIUM 63 [-]          
1 25286U 98021B   17181.83966358  .00000083  00000-0  22442-4 0  9998
2 25286  86.3995 218.6039 0002439  86.7755  32.9217 14.34668212  6726
